PROBA-1                 
1 26958U 01049B   26204.84092683  .00003581  00000+0  23171-3 0  9991
2 26958  97.9612 214.6571 0054780   0.5808 359.5473 15.07644836349148
CUTE-1 (CO-55)          
1 27844U 03031E   26204.00389230  .00000238  00000+0  12202-3 0  9993
2 27844  98.6747 212.1136 0010851  82.6312 277.6100 14.24355144196777
CUBESAT XI-IV (CO-57)   
1 27848U 03031J   26204.01036090  .00000205  00000+0  10894-3 0  9990
2 27848  98.6778 211.8037 0010712  99.0689 261.1702 14.23637690196477
APRIZESAT 4             
1 35684U 09041D   26204.19770737  .00000666  00000+0  85909-4 0  9997
2 35684  98.1397 280.2340 0042754 203.1140 156.8151 14.83922373916709
APRIZESAT 3             
1 35686U 09041F   26204.34395220  .00000488  00000+0  47569-4 0  9998
2 35686  98.2106 359.3115 0060651 308.5143  51.0647 14.96320960921785
PROBA-2                 
1 36037U 09059B   26204.48505522  .00000172  00000+0  50608-4 0  9999
2 36037  98.2464  27.3373 0013601 163.3286 196.8361 14.54876270886807
APRIZESAT 5             
1 37792U 11044E   26204.82608087  .00000724  00000+0  98777-4 0  9995
2 37792  98.2446 138.9072 0050791 244.1469 115.4500 14.81138068804216
APRIZESAT 6             
1 37793U 11044F   26204.60717659  .00000621  00000+0  94930-4 0  9991
2 37793  98.2328 115.8462 0042401 331.1649 152.9790 14.76966037802527
PROBA-V                 
1 39159U 13021A   26204.38597083  .00000056  00000+0  42412-4 0  9998
2 39159  98.3612 181.2104 0004919  40.4967 319.6578 14.23604538686261
APRIZESAT 7             
1 39416U 13066A   26204.84874750  .00000937  00000+0  97728-4 0  9991
2 39416  97.7726 157.5469 0037389  89.7749 270.7754 14.91634645686694
APRIZESAT 8             
1 39425U 13066K   26204.32744963  .00000715  00000+0  83114-4 0  9994
2 39425  97.8232 151.2954 0046178 165.1340 195.1247 14.87706025685041
BUGSAT-1 (TITA)         
1 40014U 14033E   26204.80606323  .00007522  00000+0  39195-3 0  9997
2 40014  98.0425 299.5060 0028721  57.6807 302.7199 15.15951751661388
SAUDISAT 4              
1 40016U 14033G   26204.84109602  .00000500  00000+0  72668-4 0  9993
2 40016  97.7628 349.7185 0043656 315.4216  44.3488 14.79582604651497
APRIZESAT 9             
1 40018U 14033J   26204.31607007  .00000539  00000+0  86233-4 0  9994
2 40018  97.9103 336.6404 0067473  84.3676 276.5222 14.74260317648886
APRIZESAT 10            
1 40019U 14033K   26204.58912955  .00000578  00000+0  98156-4 0  9995
2 40019  97.9689 330.7449 0079365 156.6612 203.8230 14.70919117647602
TECHDEMOSAT-1 (TDS-1)   
1 40076U 14037H   26204.71783138  .00007263  00000+0  40660-3 0  9990
2 40076  98.3838 200.5691 0007597 134.2927 225.8926 15.13770816653756
TECHNOSAT               
1 42829U 17042E   26204.88212731  .00002345  00000+0  16838-3 0  9997
2 42829  97.4322   1.1570 0016569 334.0267  26.0126 15.05144347492220
FLYING LAPTOP           
1 42831U 17042G   26204.84446713  .00002648  00000+0  20927-3 0  9995
2 42831  97.4848 359.0085 0019102   5.0388 355.1025 15.01353709491950
HAWK-A                  
1 43765U 18099H   26204.57167686  .00007405  00000+0  29393-3 0  9996
2 43765  97.3896 256.3375 0035480 154.8687 205.4288 15.25049324418646
HAWK-B                  
1 43794U 18099AN  26204.57133319  .00006507  00000+0  27428-3 0  9993
2 43794  97.3945 255.6755 0032216 172.6149 187.5570 15.23189238418575
HAWK-C                  
1 43799U 18099AT  26204.53041104  .00008732  00000+0  30877-3 0  9998
2 43799  97.3871 257.3906 0041060 154.7047 205.6215 15.28594984419460
SALSAT                  
1 46495U 20068K   26204.44213958  .00007378  00000+0  25456-3 0  9993
2 46495  97.8868 209.7289 0010091 164.5021 195.6529 15.30258663320903
HAWK-2C                 
1 47502U 21006CT  26204.59586167  .00006552  00000+0  19467-3 0  9995
2 47502  97.2264 248.1847 0008562  77.1167 283.1033 15.35067447305082
HAWK-2A                 
1 47505U 21006CW  26204.59795466  .00007515  00000+0  22272-3 0  9990
2 47505  97.2307 248.8866 0008080  80.7188 279.4969 15.35099654305080
HAWK-2B                 
1 47508U 21006CZ  26204.52559958  .00007423  00000+0  21912-3 0  9998
2 47508  97.2178 247.0899 0008672  79.1542 281.0677 15.35224502305075
HAWK-3B                 
1 48931U 21059BE  26204.50204902  .00048640  00000+0  36486-3 0  9999
2 48931  97.6638  44.7262 0005126 170.7586 189.3772 15.72474094283552
HAWK-3C                 
1 48948U 21059BX  26204.11991396  .00051915  00000+0  38987-3 0  9991
2 48948  97.6753  50.0517 0005424 171.4962 188.6393 15.72431800283490
HAWK-3A                 
1 48957U 21059CG  26204.50161008  .00050271  00000+0  37684-3 0  9990
2 48957  97.6700  47.6485 0005185 171.7361 188.3988 15.72483174283553
HAWK-5C                 
1 52754U 22057Y   26204.34360216  .00018311  00000+0  29988-3 0  9990
2 52754  97.6627   6.3826 0002342 304.3428  55.7602 15.52546450231954
HAWK-5B                 
1 52756U 22057AA  26204.34343574  .00019181  00000+0  31400-3 0  9998
2 52756  97.6638   4.7373 0003022 291.3947  68.6982 15.52546781231955
HAWK-5A                 
1 52757U 22057AB  26204.40767941  .00018409  00000+0  30144-3 0  9990
2 52757  97.6637   5.6359 0002919 296.9642  63.1311 15.52548930231961
