OBJECT_NAME,OBJECT_ID,EPOCH,MEAN_MOTION,ECCENTRICITY,INCLINATION,RA_OF_ASC_NODE,ARG_OF_PERICENTER,MEAN_ANOMALY,EPHEMERIS_TYPE,CLASSIFICATION_TYPE,NORAD_CAT_ID,ELEMENT_SET_NO,REV_AT_EPOCH,BSTAR,MEAN_MOTION_DOT,MEAN_MOTION_DDOT
PROBA-1,2001-049B,2026-07-23T20:10:56.078112,15.07644836,.005478,97.9612,214.6571,0.5808,359.5473,0,U,26958,999,34914,.23171E-3,.3581E-4,0
CUTE-1 (CO-55),2003-031E,2026-07-23T00:05:36.294720,14.24355144,.00108513,98.6747,212.1136,82.6312,277.6100,0,U,27844,999,19677,.1220184E-3,.238E-5,0
CUBESAT XI-IV (CO-57),2003-031J,2026-07-23T00:14:55.181760,14.23637690,.00107129,98.6778,211.8037,99.0689,261.1702,0,U,27848,999,19647,.10893948E-3,.205E-5,0
APRIZESAT 4,2009-041D,2026-07-23T04:44:41.916768,14.83922373,.00427543,98.1397,280.2340,203.1140,156.8151,0,U,35684,999,91670,.85909135E-4,.666E-5,0
APRIZESAT 3,2009-041F,2026-07-23T08:15:17.470080,14.96320960,.0060651,98.2106,359.3115,308.5143,51.0647,0,U,35686,999,92178,.47569E-4,.488E-5,0
PROBA-2,2009-059B,2026-07-23T11:38:28.771008,14.54876270,.0013601,98.2464,27.3373,163.3286,196.8361,0,U,36037,999,88680,.50608E-4,.172E-5,0
APRIZESAT 5,2011-044E,2026-07-23T19:49:33.387168,14.81138068,.0050791,98.2446,138.9072,244.1469,115.4500,0,U,37792,999,80421,.98777E-4,.724E-5,0
APRIZESAT 6,2011-044F,2026-07-23T14:34:20.057376,14.76966037,.0042401,98.2328,115.8462,331.1649,152.9790,0,U,37793,999,80252,.9493E-4,.621E-5,0
PROBA-V,2013-021A,2026-07-23T09:15:47.879712,14.23604538,.0004919,98.3612,181.2104,40.4967,319.6578,0,U,39159,999,68626,.42412E-4,.56E-6,0
APRIZESAT 7,2013-066A,2026-07-23T20:22:11.784000,14.91634645,.0037389,97.7726,157.5469,89.7749,270.7754,0,U,39416,999,68669,.97728E-4,.937E-5,0
APRIZESAT 8,2013-066K,2026-07-23T07:51:31.648032,14.87706025,.0046178,97.8232,151.2954,165.1340,195.1247,0,U,39425,999,68504,.83114E-4,.715E-5,0
BUGSAT-1 (TITA),2014-033E,2026-07-23T19:20:43.863072,15.15951751,.0028721,98.0425,299.5060,57.6807,302.7199,0,U,40014,999,66138,.39195E-3,.7522E-4,0
SAUDISAT 4,2014-033G,2026-07-23T20:11:10.696128,14.79582604,.0043656,97.7628,349.7185,315.4216,44.3488,0,U,40016,999,65149,.72668E-4,.5E-5,0
APRIZESAT 9,2014-033J,2026-07-23T07:35:08.454048,14.74260317,.0067473,97.9103,336.6404,84.3676,276.5222,0,U,40018,999,64888,.86233E-4,.539E-5,0
APRIZESAT 10,2014-033K,2026-07-23T14:08:20.793120,14.70919117,.0079365,97.9689,330.7449,156.6612,203.8230,0,U,40019,999,64760,.98156E-4,.578E-5,0
TECHDEMOSAT-1 (TDS-1),2014-037H,2026-07-23T17:13:40.631232,15.13770816,.0007597,98.3838,200.5691,134.2927,225.8926,0,U,40076,999,65375,.4066E-3,.7263E-4,0
TECHNOSAT,2017-042E,2026-07-23T21:10:15.799584,15.05144347,.0016569,97.4322,1.1570,334.0267,26.0126,0,U,42829,999,49222,.16838E-3,.2345E-4,0
FLYING LAPTOP,2017-042G,2026-07-23T20:16:01.960032,15.01353709,.0019102,97.4848,359.0085,5.0388,355.1025,0,U,42831,999,49195,.20927E-3,.2648E-4,0
HAWK-A,2018-099H,2026-07-23T13:43:12.880704,15.25049324,.003548,97.3896,256.3375,154.8687,205.4288,0,U,43765,999,41864,.29393E-3,.7405E-4,0
HAWK-B,2018-099AN,2026-07-23T13:42:43.187616,15.23189238,.0032216,97.3945,255.6755,172.6149,187.5570,0,U,43794,999,41857,.27428E-3,.6507E-4,0
HAWK-C,2018-099AT,2026-07-23T12:43:47.513856,15.28594984,.004106,97.3871,257.3906,154.7047,205.6215,0,U,43799,999,41946,.30877E-3,.8732E-4,0
SALSAT,2020-068K,2026-07-23T10:36:40.859712,15.30258663,.0010091,97.8868,209.7289,164.5021,195.6529,0,U,46495,999,32090,.25456E-3,.7378E-4,0
HAWK-2C,2021-006CT,2026-07-23T14:18:02.448288,15.35067447,.0008562,97.2264,248.1847,77.1167,283.1033,0,U,47502,999,30508,.19467E-3,.6552E-4,0
HAWK-2A,2021-006CW,2026-07-23T14:21:03.282624,15.35099654,.000808,97.2307,248.8866,80.7188,279.4969,0,U,47505,999,30508,.22272E-3,.7515E-4,0
HAWK-2B,2021-006CZ,2026-07-23T12:36:51.803712,15.35224502,.0008672,97.2178,247.0899,79.1542,281.0677,0,U,47508,999,30507,.21912E-3,.7423E-4,0
HAWK-3B,2021-059BE,2026-07-23T12:02:57.035328,15.72474094,.0005126,97.6638,44.7262,170.7586,189.3772,0,U,48931,999,28355,.36486E-3,.4864E-3,0
HAWK-3C,2021-059BX,2026-07-23T02:52:40.566144,15.72431800,.00054243,97.6753,50.0517,171.4962,188.6393,0,U,48948,999,28349,.38986946E-3,.51915E-3,0
HAWK-3A,2021-059CG,2026-07-23T12:02:19.110912,15.72483174,.0005185,97.6700,47.6485,171.7361,188.3988,0,U,48957,999,28355,.37684E-3,.50271E-3,0
HAWK-5C,2022-057Y,2026-07-23T08:14:47.226624,15.52546450,.0002342,97.6627,6.3826,304.3428,55.7602,0,U,52754,999,23195,.29988E-3,.18311E-3,0
HAWK-5B,2022-057AA,2026-07-23T08:14:32.847936,15.52546781,.0003022,97.6638,4.7373,291.3947,68.6982,0,U,52756,999,23195,.314E-3,.19181E-3,0
HAWK-5A,2022-057AB,2026-07-23T09:47:03.501024,15.52548930,.0002919,97.6637,5.6359,296.9642,63.1311,0,U,52757,999,23196,.30144E-3,.18409E-3,0
